OBJECT_NAME,OBJECT_ID,EPOCH,MEAN_MOTION,ECCENTRICITY,INCLINATION,RA_OF_ASC_NODE,ARG_OF_PERICENTER,MEAN_ANOMALY,EPHEMERIS_TYPE,CLASSIFICATION_TYPE,NORAD_CAT_ID,ELEMENT_SET_NO,REV_AT_EPOCH,BSTAR,MEAN_MOTION_DOT,MEAN_MOTION_DDOT
LEMUR-2-STARLIGHT,2025-276DY,2026-07-02T15:43:49.696320,14.99217840,.0014627,97.5229,253.7652,83.4849,276.8039,0,U,66783,999,3251,.53507E-3,.6479E-4,0
LEMUR-2-TARTIFLETTE,2025-276DZ,2026-07-02T15:41:24.707616,14.99222514,.0013619,97.5234,253.7717,91.1409,269.1375,0,U,66784,999,3251,.54791E-3,.6635E-4,0
LEMUR-2-VUKASIN,2025-276EA,2026-07-02T04:01:06.227616,15.00442804,.00049534,97.5271,253.6348,89.5693,270.6099,0,U,66785,999,3239,.15220199E-3,.1857E-4,0
LEMUR-2-HOTSPUR-TOM,2025-276EB,2026-07-02T10:43:51.690720,14.99123275,.0014247,97.5226,253.5500,83.3390,276.9454,0,U,66786,999,3241,.60938E-3,.7369E-4,0
LEMUR-2-MYRA,2025-276EC,2026-07-02T11:11:34.471680,15.00458761,.0018201,97.5213,253.8474,92.9398,267.3910,0,U,66787,999,3250,.69209E-3,.8688E-4,0
LEMUR-2 FIKRETDENGIZ,2026-004A,2026-07-02T19:09:58.449024,14.88440037,.0010577,97.8017,182.1175,90.1290,270.1139,0,U,67363,999,2560,.56311E-3,.5177E-4,0
TWILIGHT-1 OBJECT B,2026-004B,2026-07-01T22:55:57.023904,14.87754645,.00102413,97.8064,181.2954,83.1024,277.1357,0,U,67364,999,2548,.23142862E-3,.2058E-4,0
LEMUR-2-MARIO-SOUSA,2026-004C,2026-07-02T17:06:39.249792,14.88640348,.0010188,97.7990,182.0287,91.3123,268.9261,0,U,67365,999,2560,.52919E-3,.4885E-4,0
LEMUR-2-SONNENBLUME,2026-004E,2026-07-02T17:07:37.065216,14.88398684,.0009718,97.7987,182.0078,92.3364,267.8966,0,U,67367,999,2560,.35174E-3,.3208E-4,0
LEMUR-2-WOBLER,2026-004F,2026-07-02T16:55:02.928864,14.88625456,.0009986,97.8040,182.1371,84.1757,276.0598,0,U,67368,999,2560,.46315E-3,.4267E-4,0
LEMUR-2-GRAM-E-SUE,2026-004H,2026-07-01T22:57:44.846784,14.88538003,.00088572,97.7971,181.2787,96.3817,263.8409,0,U,67370,999,2549,.32270566E-3,.2949E-4,0
LEMUR-2-KATIE,2026-004AA,2026-07-02T17:37:04.340064,14.90154154,.0004397,97.8033,182.5537,61.6264,298.5396,0,U,67387,999,2562,.61858E-3,.5936E-4,0
LEMUR-2-HCS-BAZUS,2026-004AB,2026-07-02T19:11:43.243584,14.90209766,.0003827,97.8023,182.5983,60.2745,299.8853,0,U,67388,999,2563,.44308E-3,.4241E-4,0
