LEMUR-2-STARLIGHT       
1 66783U 25276DY  26183.65543630  .00006479  00000+0  53507-3 0  9992
2 66783  97.5229 253.7652 0014627  83.4849 276.8039 14.99217840 32513
LEMUR-2-TARTIFLETTE     
1 66784U 25276DZ  26183.65375819  .00006635  00000+0  54791-3 0  9995
2 66784  97.5234 253.7717 0013619  91.1409 269.1375 14.99222514 32512
LEMUR-2-VUKASIN         
1 66785U 25276EA  26183.16743319  .00001857  00000+0  15220-3 0  9991
2 66785  97.5271 253.6348 0004953  89.5693 270.6099 15.00442804 32395
LEMUR-2-HOTSPUR-TOM     
1 66786U 25276EB  26183.44712605  .00007369  00000+0  60938-3 0  9997
2 66786  97.5226 253.5500 0014247  83.3390 276.9454 14.99123275 32410
LEMUR-2-MYRA            
1 66787U 25276EC  26183.46637120  .00008688  00000+0  69209-3 0  9993
2 66787  97.5213 253.8474 0018201  92.9398 267.3910 15.00458761 32503
LEMUR-2 FIKRETDENGIZ    
1 67363U 26004A   26183.79859316  .00005177  00000+0  56311-3 0  9993
2 67363  97.8017 182.1175 0010577  90.1290 270.1139 14.88440037 25600
TWILIGHT-1 OBJECT B     
1 67364U 26004B   26182.95552111  .00002058  00000+0  23143-3 0  9996
2 67364  97.8064 181.2954 0010241  83.1024 277.1357 14.87754645 25480
LEMUR-2-MARIO-SOUSA     
1 67365U 26004C   26183.71295428  .00004885  00000+0  52919-3 0  9990
2 67365  97.7990 182.0287 0010188  91.3123 268.9261 14.88640348 25608
LEMUR-2-SONNENBLUME     
1 67367U 26004E   26183.71362344  .00003208  00000+0  35174-3 0  9996
2 67367  97.7987 182.0078 0009718  92.3364 267.8966 14.88398684 25602
LEMUR-2-WOBLER          
1 67368U 26004F   26183.70489501  .00004267  00000+0  46315-3 0  9996
2 67368  97.8040 182.1371 0009986  84.1757 276.0598 14.88625456 25606
LEMUR-2-GRAM-E-SUE      
1 67370U 26004H   26182.95676906  .00002949  00000+0  32271-3 0  9993
2 67370  97.7971 181.2787 0008857  96.3817 263.8409 14.88538003 25493
LEMUR-2-KATIE           
1 67387U 26004AA  26183.73407801  .00005936  00000+0  61858-3 0  9996
2 67387  97.8033 182.5537 0004397  61.6264 298.5396 14.90154154 25623
LEMUR-2-HCS-BAZUS       
1 67388U 26004AB  26183.79980606  .00004241  00000+0  44308-3 0  9991
2 67388  97.8023 182.5983 0003827  60.2745 299.8853 14.90209766 25637
